172P/Yeung,e,11.2248,30.8795,208.9901,4.221250,0.1136430,0.20458612,308.3979,08/06.0/2024,2000,g 13.0,4.0
# From MPEC 2023-N01
173P/Mueller,e,16.4915,100.3523,29.2111,5.713332,0.0721722,0.26213327,69.5015,08/06.0/2024,2000,g  7.5,4.0
# From MPC 92985
174P/Echeclus,e,4.3425,173.3092,163.4467,10.75709,0.0279359,0.45562761,94.7701,08/06.0/2024,2000,g  9.4,2.0
# From MPC114608
175P/Hergenrother,e,4.9162,109.9859,75.0603,3.678569,0.1396966,0.37855818,254.1438,08/06.0/2024,2000,g 14.0,4.0
# From MPC 89015
176P/LINEAR,e,0.2313,345.6320,34.4521,3.194556,0.1726189,0.19215085,107.8692,08/06.0/2024,2000,g 15.1,2.0
# From MPEC 2020-L06
177P/Barnard,e,31.0322,271.9174,60.6690,24.51683,0.0081191,0.95457789,53.1543,08/06.0/2024,2000,g 15.0,4.0
# From MPEC 2021-F20
178P/Hug-Bell,e,11.0909,102.7924,297.9394,3.632813,0.1423441,0.48248176,210.6781,08/06.0/2024,2000,g 14.6,4.0
# From MPEC 2024-EF7
179P/Jedicke,e,19.8924,115.5133,297.1370,5.935537,0.0681576,0.30572489,54.3411,08/06.0/2024,2000,g  2.5,8.0
# From MPEC 2024-F34
180P/NEAT,e,16.8618,84.5597,94.6355,3.868319,0.1295450,0.35362519,50.6396,08/06.0/2024,2000,g 11.0,4.0
# From MPC 89012
181P/Shoemaker-Levy,e,17.4813,35.4256,336.2942,3.878123,0.1290541,0.70019171,121.3585,08/06.0/2024,2000,g 11.5,4.0
# From MPEC 2014-J10
182P/LONEOS,e,16.2319,72.4500,54.2047,2.949261,0.1945962,0.66367800,158.8913,08/06.0/2024,2000,g 18.0,4.0
# From MPEC 2023-A50
183P/Korlevic-Juric,e,18.7790,3.7820,164.1037,4.694683,0.0968935,0.10290255,248.5901,08/06.0/2024,2000,g 12.5,2.0
# From MPEC 2020-W26
184P/Lovas,e,4.5721,173.2747,186.5628,3.799626,0.1330739,0.55026704,183.6401,08/06.0/2024,2000,g 13.5,4.0
# From MPEC 2024-F91
185P/Petriew,e,14.0140,214.1166,181.9050,3.098896,0.1806731,0.69964740,70.4838,08/06.0/2024,2000,g 15.0,4.0
# From MPEC 2022-X67
186P/Garradd,e,28.6276,326.0590,268.9165,4.852040,0.0922184,0.12421853,189.3273,08/06.0/2024,2000,g  7.5,4.0
# From MPEC 2020-SI8
187P/LINEAR,e,13.6553,109.8436,131.2272,4.557603,0.1012976,0.15456483,230.7100,08/06.0/2024,2000,g  9.0,4.0
# From MPEC 2023-J29
188P/LINEAR-Mueller,e,10.5237,358.9307,26.7731,4.367233,0.1079927,0.41689283,293.5754,08/06.0/2024,2000,g 11.5,4.0
# From MPEC 2022-QD9
189P/NEAT,e,20.1004,281.6724,16.2372,2.942312,0.1952860,0.58945140,138.2858,08/06.0/2024,2000,g 19.0,4.0
# From MPEC 2024-P23
190P/Mueller,e,2.1747,335.5025,50.5154,4.226670,0.1134244,0.52218734,344.1071,08/06.0/2024,2000,g 13.0,4.0
# From MPEC 2022-X67
191P/McNaught,e,8.8391,98.1868,284.2518,3.639859,0.1419310,0.38554514,175.2133,08/06.0/2024,2000,g 13.0,4.0
# From MPEC 2024-P23
192P/Shoemaker-Levy,e,24.5892,51.6125,313.0910,6.463414,0.0599806,0.77341595,4.4055,08/06.0/2024,2000,g 15.0,4.0
# From MPEC 2024-JU4
193P/LINEAR-NEAT,e,10.6826,335.1883,8.1352,3.578538,0.1455947,0.39298387,156.8614,08/06.0/2024,2000,g 14.0,4.0
# From MPEC 2024-GJ3
194P/LINEAR,e,11.8054,349.5249,128.5735,4.120573,0.1178332,0.56325753,21.6524,08/06.0/2024,2000,g 16.0,4.0
# From MPEC 2024-GJ3
195P/Hill,e,36.4253,243.1139,250.3015,6.466022,0.0599444,0.31294108,338.2935,08/06.0/2024,2000,g  8.5,4.0
# From MPEC 2024-GJ3
196P/Tichy,e,19.3001,24.1177,12.1023,3.804932,0.1327956,0.42785810,85.8718,08/06.0/2024,2000,g 13.5,4.0
# From MPEC 2023-UR6
197P/LINEAR,e,25.6568,66.2314,189.4419,2.887494,0.2008734,0.62761114,121.8198,08/06.0/2024,2000,g 16.5,2.0
# From NK 1596
198P/ODAS,e,1.3389,358.2008,69.3055,3.593936,0.1446600,0.44478885,297.8418,08/06.0/2024,2000,g  9.0,4.0
# From MPEC 2024-L77
199P/Shoemaker,e,24.9387,92.3480,191.7713,5.876879,0.0691805,0.50475171,25.2136,08/06.0/2024,2000,g 10.0,4.0
# From MPEC 2022-C56
200P/Larsen,e,12.0964,234.8044,134.3792,4.950895,0.0894702,0.33179846,164.0985,08/06.0/2024,2000,g  9.0,4.0
# From MPC 93588
201P/LONEOS,e,5.7392,41.5375,19.7747,3.354761,0.1604027,0.63758927,187.1162,08/06.0/2024,2000,g 14.0,4.0
# From MPEC 2023-XP6
202P/Scotti,e,2.1416,177.3074,274.4945,4.101547,0.1186541,0.25158003,9.5660,08/06.0/2024,2000,g 13.5,4.0
# From MPEC 2021-S45
203P/Korlevic,e,2.9746,290.2450,154.8611,4.668565,0.0977077,0.31631880,157.6565,08/06.0/2024,2000,g 14.5,2.0
# From MPEC 2024-JU4
204P/LINEAR-NEAT,e,6.5968,108.4797,356.6988,3.583684,0.1452812,0.48819227,91.2311,08/06.0/2024,2000,g 14.0,4.0
# From MPEC 2023_O39
205P/Giacobini,e,15.3035,179.6159,154.1795,3.542727,0.1478079,0.56743528,138.3202,08/06.0/2024,2000,g 13.0,4.0
# From MPC 75725
206P/Barnard-Boattini,e,33.6304,202.3508,189.5606,3.491090,0.1510993,0.55137138,188.8677,08/06.0/2024,2000,g 19.0,4.0
# From MPEC 2024-NE4
207P/NEAT,e,10.2009,198.1551,272.9978,3.884441,0.1287393,0.75844827,24.0971,08/06.0/2024,2000,g 16.0,4.0
# From MPEC 2024-NE4
208P/McMillan,e,4.4121,36.3362,310.6690,4.038127,0.1214602,0.37385479,357.8285,08/06.0/2024,2000,g 12.5,4.0
# From MPEC 2024-P23
209P/LINEAR,e,21.2825,62.7697,152.4938,2.958712,0.1936645,0.67404186,4.3580,08/06.0/2024,2000,g 17.0,2.0
# From MPC105242
210P/Christensen,e,10.2807,93.8241,345.9024,3.161824,0.1753063,0.83403949,276.9565,08/06.0/2024,2000,g 13.5,4.0
# From MPEC 2024-JU4
211P/Hill,e,18.9209,117.1075,4.3233,3.548833,0.1474266,0.34430446,98.9483,08/06.0/2024,2000,g 12.5,4.0
# From MPEC 2024-GJ3
212P/NEAT,e,22.1487,97.9753,14.0268,3.901028,0.1279191,0.58665538,13.1626,08/06.0/2024,2000,g 17.0,2.0
# From MPEC 2022-GA9
213P/Van Ness,e,10.3804,311.2847,5.8376,3.347394,0.1609325,0.40827879,43.1396,08/06.0/2024,2000,g 10.5,4.0
# From MPC 76570
213P-B/Van Ness,e,10.3770,5.7277,311.4039,3.347764,0.1609058,0.40844620,42.9867,08/06.0/2024,2000,g 17.0,4.0
# From MPC 76570
213P-C/Van Ness,e,10.3745,5.7088,311.4061,3.347140,0.1609509,0.40828633,43.2667,08/06.0/2024,2000,g 17.5,4.0
# From MPC 92986
214P/LINEAR,e,15.1873,348.2178,190.1354,3.617398,0.1432549,0.48596572,97.3931,08/06.0/2024,2000,g 13.0,4.0
# From MPEC 2024-F91
215P/NEAT,e,10.5765,56.6735,262.3753,4.334190,0.1092301,0.16524241,188.3032,08/06.0/2024,2000,g 11.0,4.0
# From MPEC 2024-N80
216P/LINEAR,e,9.0624,359.7970,151.7410,3.859100,0.1300095,0.44881404,27.5753,08/06.0/2024,2000,g 13.0,4.0
# From MPEC 2024-LE0
217P/LINEAR,e,12.8642,125.3758,247.0223,3.945932,0.1257418,0.68919376,323.2930,08/06.0/2024,2000,g 12.0,4.0
# From MPEC 2022-K19
218P/LINEAR,e,2.7243,175.3463,60.3865,3.074581,0.1828206,0.62936945,254.8805,08/06.0/2024,2000,g 16.0,4.0
# From MPEC 2024-N80
219P/LINEAR,e,11.5399,230.9532,107.6574,3.646580,0.1415388,0.35419830,24.6372,08/06.0/2024,2000,g 11.0,4.0
# From MPEC 2024-A43
220P/McNaught,e,8.1227,150.1014,180.6073,3.119313,0.1789022,0.50062052,238.8705,08/06.0/2024,2000,g 15.0,4.0
# From MPEC 2022-UY9
221P/LINEAR,e,11.4946,229.5426,39.2936,3.425902,0.1554325,0.50459174,148.5738,08/06.0/2024,2000,g 14.5,4.0
# From MPC 92277
222P/LINEAR,e,5.0960,6.7820,346.2860,2.897879,0.1997946,0.71472988,17.0036,08/06.0/2024,2000,g 20.0,4.0
# From MPEC 2023-A50
223P/Skiff,e,27.0095,346.7314,37.9521,4.158236,0.1162359,0.41647211,234.1834,08/06.0/2024,2000,g 12.0,4.0
# From MPEC 2024-L77
224P/LINEAR-NEAT,e,13.3049,40.0395,16.7716,3.446009,0.1540740,0.40582002,104.1281,08/06.0/2024,2000,g 15.5,4.0
# From MPEC 2024-F91
225P/LINEAR,e,21.3656,14.2032,3.9019,3.647312,0.1414962,0.63838544,51.5045,08/06.0/2024,2000,g 18.0,4.0
# From MPEC 2024-MB8
226P/Pigott-LINEAR-Kowalski,e,44.0455,54.0115,341.0315,3.765964,0.1348621,0.52906686,30.0546,08/06.0/2024,2000,g 12.5,4.0
# From MPEC 2024-O39
227P/Catalina-LINEAR,e,7.5084,36.8095,105.5737,3.436601,0.1547072,0.52754341,23.3205,08/06.0/2024,2000,g 16.5,2.0
# From MPEC 2022-HC2
228P/LINEAR,e,7.9138,30.9696,114.7384,4.163882,0.1159996,0.17696382,186.9802,08/06.0/2024,2000,g 14.1,4.0
# From MPC106349
229P/Gibbs,e,26.1011,157.9330,224.1402,3.923368,0.1268281,0.37792636,333.1471,08/06.0/2024,2000,g 13.0,4.0
# From MPEC 2024-P23
230P/LINEAR,e,15.4698,106.9396,313.5441,3.454429,0.1535111,0.54563862,133.6164,08/06.0/2024,2000,g 13.0,4.0
# From MPEC 2023-SQ0
231P/LINEAR-NEAT,e,12.2727,132.8411,43.9844,4.056210,0.1206489,0.24048221,227.8917,08/06.0/2024,2000,g 14.5,2.0
# From MPC112394
232P/Hill,e,14.6439,56.0265,53.2326,4.471696,0.1042307,0.33577445,202.9587,08/06.0/2024,2000,g 11.5,4.0
# From MPEC 2021-N06
233P/La Sagra,e,11.2888,74.9007,26.9973,3.027031,0.1871452,0.41282783,262.6543,08/06.0/2024,2000,g 15.0,4.0
# From MPEC 2024-DC6
234P/LINEAR,e,11.5353,179.5675,357.4212,3.796245,0.1332517,0.25693588,349.5288,08/06.0/2024,2000,g 12.0,4.0
# From MPC110497
235P/LINEAR,e,9.6105,203.7510,348.3723,3.499981,0.1505239,0.40663922,280.5799,08/06.0/2024,2000,g 12.0,4.0
# From MPEC 2024-P23
236P/LINEAR,e,16.3557,245.5694,119.4056,3.725170,0.1370834,0.50924033,335.0803,08/06.0/2024,2000,g 14.0,4.0
# From MPEC 2024-L77
237P/LINEAR,e,14.0177,245.3518,25.3627,3.512289,0.1497334,0.43378517,67.2601,08/06.0/2024,2000,g 14.5,2.0
# From MPEC 2024-L77
238P/Read,e,1.2640,51.6382,324.2612,3.166449,0.1749223,0.25101843,138.6538,08/06.0/2024,2000,g 14.5,4.0
# From MPEC 2021-F20
239P/LINEAR,e,11.3080,255.9477,220.3482,4.465149,0.1044600,0.63119631,212.5233,08/06.0/2024,2000,g 17.5,2.0
# From MPEC 2024-O39
240P/NEAT,e,23.5371,74.9164,352.0291,3.861393,0.1298937,0.45034162,294.9344,08/06.0/2024,2000,g 11.0,4.0
# From MPEC 2022-J42
241P/LINEAR,e,21.0950,305.4504,111.5461,4.925732,0.0901567,0.61040993,99.7819,08/06.0/2024,2000,g 13.5,4.0
# From MPEC 2024-L77
242P/Spahr,e,32.4441,180.3387,244.8632,5.533073,0.0757276,0.28220382,349.4652,08/06.0/2024,2000,g  8.0,4.0
# From MPEC 2022-K19
243P/NEAT,e,7.6439,87.6483,283.6735,3.828172,0.1315882,0.36051214,285.2085,08/06.0/2024,2000,g 12.5,4.0
# From MPEC 2024-L77
244P/Scotti,e,2.2585,354.0099,93.3393,4.901646,0.0908220,0.19985170,56.8496,08/06.0/2024,2000,g  9.0,4.0
# From MPEC 2022-CN4
245P/WISE,e,21.1744,316.8893,316.5392,4.050786,0.1208913,0.45567958,287.1832,08/06.0/2024,2000,g 14.0,4.0
# From MPEC 2024-L77
246P/NEAT,e,17.6406,74.3127,184.7138,4.157056,0.1162854,0.26169713,148.5994,08/06.0/2024,2000,g 10.5,4.0
# From MPEC 2021-F20
247P/LINEAR,e,13.6586,54.0053,47.4545,3.965312,0.1248211,0.62541785,258.7704,08/06.0/2024,2000,g 16.5,2.0
# From MPC 75730
